[{"OBJECT_NAME":"STARLINK-2171","OBJECT_ID":"2021-017AJ","EPOCH":"2026-03-10T00:00:02.999808","MEAN_MOTION":15.70905931,"ECCENTRICITY":0.0002371,"INCLINATION":53.0436,"RA_OF_ASC_NODE":167.0252,"ARG_OF_PERICENTER":165.5816,"MEAN_ANOMALY":179.0332,"EPHEMERIS_TYPE":0,"CLASSIFICATION_TYPE":"U","NORAD_CAT_ID":47754,"ELEMENT_SET_NO":999,"REV_AT_EPOCH":590,"BSTAR":0.00011207161,"MEAN_MOTION_DOT":0.00013697,"MEAN_MOTION_DDOT":0},{"OBJECT_NAME":"STARLINK-11487 [DTC]","OBJECT_ID":"2024-237M","EPOCH":"2026-03-09T23:42:00.327456","MEAN_MOTION":15.70882532,"ECCENTRICITY":0.00015723,"INCLINATION":43.0003,"RA_OF_ASC_NODE":55.3015,"ARG_OF_PERICENTER":243.0309,"MEAN_ANOMALY":117.0398,"EPHEMERIS_TYPE":0,"CLASSIFICATION_TYPE":"U","NORAD_CAT_ID":62278,"ELEMENT_SET_NO":999,"REV_AT_EPOCH":7309,"BSTAR":0.00099580366,"MEAN_MOTION_DOT":0.00129568,"MEAN_MOTION_DDOT":0}]
